0 IRIDIUM 50
1 25172U 98010D   13282.33508294  .00000365  00000-0  12327-3 0  5061
2 25172 086.4022 193.2652 0002022 100.4284 039.0378 14.34222860818711
0 IRIDIUM 50
1 25172U 98010D   13282.33508294  .00000365  00000-0  12327-3 0  5072
2 25172 086.4022 193.2652 0002022 100.4284 039.0378 14.34222860818711
0 IRIDIUM 50
1 25172U 98010D   13283.38043194  .00000357  00000-0  12044-3 0  5089
2 25172 086.4023 192.8290 0002014 100.8091 032.5911 14.34223549818868
0 IRIDIUM 50
1 25172U 98010D   13284.35816624  .00000379  00000-0  12835-3 0  5096
2 25172 086.4023 192.4210 0002016 101.3200 037.1295 14.34223951819006
0 IRIDIUM 50
1 25172U 98010D   13285.33472020  .00000333  00000-0  11180-3 0  5107
2 25172 086.4023 192.0135 0002017 101.6179 035.7929 14.34224315819145
0 IRIDIUM 50
1 25172U 98010D   13286.38100703  .00000350  00000-0  11795-3 0  5111
2 25172 086.4023 191.5770 0002021 101.6377 034.5548 14.34224795819291
0 IRIDIUM 50
1 25172U 98010D   13286.38100703  .00000350  00000-0  11795-3 0  5122
2 25172 086.4023 191.5770 0002021 101.6377 034.5548 14.34224795819291
0 IRIDIUM 50
1 25172U 98010D   13287.35638670  .00000402  00000-0  13635-3 0  5133
2 25172 086.4022 191.1700 0002017 101.4408 027.6578 14.34225554819433
0 IRIDIUM 50
1 25172U 98010D   13288.26753640  .00000171  00000-0  53842-4 0  5148
2 25172 086.4022 190.7894 0002062 100.0896 050.4738 14.34214430819565
0 IRIDIUM 50
1 25172U 98010D   13288.26753640  .00000171  00000-0  53842-4 0  5159
2 25172 086.4022 190.7894 0002062 100.0896 050.4738 14.34214430819565
0 IRIDIUM 50
1 25172U 98010D   13289.31189502  .00000139  00000-0  42695-4 0  5165
2 25172 086.4020 190.3540 0002021 101.6250 037.7381 14.34215738819714
0 IRIDIUM 50
1 25172U 98010D   13289.31189502  .00000139  00000-0  42695-4 0  5176
2 25172 086.4020 190.3540 0002021 101.6250 037.7381 14.34215738819714
0 IRIDIUM 50
1 25172U 98010D   13290.35805132  .00000147  00000-0  45539-4 0  5186
2 25172 086.4020 189.9175 0002046 101.6866 035.7540 14.34216307819866
0 IRIDIUM 50
1 25172U 98010D   13291.33495369  .00000140  00000-0  43020-4 0  5199
2 25172 086.4018 189.5101 0002012 101.7761 036.3985 14.34216689820007
0 IRIDIUM 50
1 25172U 98010D   13292.31209477  .00000110  00000-0  32083-4 0  5207
2 25172 086.4017 189.1023 0002069 102.1428 037.9949 14.34216006820147
0 IRIDIUM 50
1 25172U 98010D   13293.35778843  .00000377  00000-0  12751-3 0  5215
2 25172 086.4015 188.6661 0002053 101.7091 034.1200 14.34217493820297
0 IRIDIUM 50
1 25172U 98010D   13293.35778843  .00000377  00000-0  12751-3 0  5226
2 25172 086.4015 188.6661 0002053 101.7091 034.1200 14.34217493820297
0 IRIDIUM 50
1 25172U 98010D   13294.33370222  .00000404  00000-0  13717-3 0  5239
2 25172 086.4014 188.2589 0002043 101.8418 029.6235 14.34218693820430
0 IRIDIUM 50
1 25172U 98010D   13295.31184216  .00000426  00000-0  14508-3 0  5248
2 25172 086.4014 187.8508 0002036 102.0953 036.4968 14.34219573820577
